CTC2_L_00296001-01
1 46747U 26589UM  26070.40846065  .00000000  00000+0  00000-0 0  9995
2 46747  85.0000   0.0000 0000000   0.0000   0.0000 13.81096544    15
CTC2_L_00296001-02
1 46748U 23268SL  26070.40846065  .00000000  00000+0  00000-0 0  9997
2 46748  85.0000   0.0000 0000000   0.0000  90.0000 13.81096544    15
CTC2_L_00296001-03
1 46749U 25967SX  26070.40846065  .00000000  00000+0  00000-0 0  9996
2 46749  85.0000   0.0000 0000000   0.0000 180.0000 13.81096544    16
CTC2_L_00296001-04
1 46750U 26370XM  26070.40846065  .00000000  00000+0  00000-0 0  9997
2 46750  85.0000   0.0000 0000000   0.0000 270.0000 13.81096544    18
CTC2_L_00296002-01
1 46751U 22440OW  26070.40846065  .00000000  00000+0  00000-0 0  9992
2 46751  85.0000  12.0000 0000000   0.0000  12.0000 13.81096544    16
CTC2_L_00296002-02
1 46752U 24282NB  26070.40846065  .00000000  00000+0  00000-0 0  9999
2 46752  85.0000  12.0000 0000000   0.0000 102.0000 13.81096544    17
CTC2_L_00296002-03
1 46753U 23499XA  26070.40846065  .00000000  00000+0  00000-0 0  9999
2 46753  85.0000  12.0000 0000000   0.0000 192.0000 13.81096544    17
CTC2_L_00296002-04
1 46754U 25390KH  26070.40846065  .00000000  00000+0  00000-0 0  9992
2 46754  85.0000  12.0000 0000000   0.0000 282.0000 13.81096544    18
CTC2_L_00296003-01
1 46755U 25840OZ  26070.40846065  .00000000  00000+0  00000-0 0  9993
2 46755  85.0000  24.0000 0000000   0.0000  24.0000 13.81096544    16
CTC2_L_00296003-02
1 46756U 22799KF  26070.40846065  .00000000  00000+0  00000-0 0  9994
2 46756  85.0000  24.0000 0000000   0.0000 114.0000 13.81096544    17
CTC2_L_00296003-03
1 46757U 23046KI  26070.40846065  .00000000  00000+0  00000-0 0  9991
2 46757  85.0000  24.0000 0000000   0.0000 204.0000 13.81096544    18
CTC2_L_00296003-04
1 46758U 25334NB  26070.40846065  .00000000  00000+0  00000-0 0  9994
2 46758  85.0000  24.0000 0000000   0.0000 294.0000 13.81096544    18
CTC2_L_00296004-01
1 46759U 26107OU  26070.40846065  .00000000  00000+0  00000-0 0  9994
2 46759  85.0000  36.0000 0000000   0.0000  36.0000 13.81096544    16
CTC2_L_00296004-02
1 46760U 22607WS  26070.40846065  .00000000  00000+0  00000-0 0  9997
2 46760  85.0000  36.0000 0000000   0.0000 126.0000 13.81096544    18
CTC2_L_00296004-03
1 46761U 23511GJ  26070.40846065  .00000000  00000+0  00000-0 0  9993
2 46761  85.0000  36.0000 0000000   0.0000 216.0000 13.81096544    19
CTC2_L_00296004-04
1 46762U 22042XC  26070.40846065  .00000000  00000+0  00000-0 0  9992
2 46762  85.0000  36.0000 0000000   0.0000 306.0000 13.81096544    10
CTC2_L_00296005-01
1 46763U 23970CA  26070.40846065  .00000000  00000+0  00000-0 0  9994
2 46763  85.0000  48.0000 0000000   0.0000  48.0000 13.81096544    17
CTC2_L_00296005-02
1 46764U 25489RV  26070.40846065  .00000000  00000+0  00000-0 0  9992
2 46764  85.0000  48.0000 0000000   0.0000 138.0000 13.81096544    18
CTC2_L_00296005-03
1 46765U 25143YK  26070.40846065  .00000000  00000+0  00000-0 0  9990
2 46765  85.0000  48.0000 0000000   0.0000 228.0000 13.81096544    19
CTC2_L_00296005-04
1 46766U 22739WB  26070.40846065  .00000000  00000+0  00000-0 0  9999
2 46766  85.0000  48.0000 0000000   0.0000 318.0000 13.81096544    10
CTC2_L_00296006-01
1 46767U 23800YM  26070.40846065  .00000000  00000+0  00000-0 0  9990
2 46767  85.0000  60.0000 0000000   0.0000  60.0000 13.81096544    19
CTC2_L_00296006-02
1 46768U 26942ZA  26070.40846065  .00000000  00000+0  00000-0 0  9991
2 46768  85.0000  60.0000 0000000   0.0000 150.0000 13.81096544    10
CTC2_L_00296006-03
1 46769U 24377GD  26070.40846065  .00000000  00000+0  00000-0 0  9992
2 46769  85.0000  60.0000 0000000   0.0000 240.0000 13.81096544    11
CTC2_L_00296006-04
1 46770U 23585B   26070.40846065  .00000000  00000+0  00000-0 0  9994
2 46770  85.0000  60.0000 0000000   0.0000 330.0000 13.81096544    13
CTC2_L_00296007-01
1 46771U 24596BL  26070.40846065  .00000000  00000+0  00000-0 0  9998
2 46771  85.0000  72.0000 0000000   0.0000  72.0000 13.81096544    10
CTC2_L_00296007-02
1 46772U 25372PM  26070.40846065  .00000000  00000+0  00000-0 0  9992
2 46772  85.0000  72.0000 0000000   0.0000 162.0000 13.81096544    11
CTC2_L_00296007-03
1 46773U 23722ZS  26070.40846065  .00000000  00000+0  00000-0 0  9990
2 46773  85.0000  72.0000 0000000   0.0000 252.0000 13.81096544    12
CTC2_L_00296007-04
1 46774U 22101MS  26070.40846065  .00000000  00000+0  00000-0 0  9991
2 46774  85.0000  72.0000 0000000   0.0000 342.0000 13.81096544    13
CTC2_L_00296008-01
1 46775U 23692HD  26070.40846065  .00000000  00000+0  00000-0 0  9998
2 46775  85.0000  84.0000 0000000   0.0000  84.0000 13.81096544    10
CTC2_L_00296008-02
1 46776U 24525SE  26070.40846065  .00000000  00000+0  00000-0 0  9995
2 46776  85.0000  84.0000 0000000   0.0000 174.0000 13.81096544    11
CTC2_L_00296008-03
1 46777U 23064U   26070.40846065  .00000000  00000+0  00000-0 0  9993
2 46777  85.0000  84.0000 0000000   0.0000 264.0000 13.81096544    12
CTC2_L_00296008-04
1 46778U 25009VT  26070.40846065  .00000000  00000+0  00000-0 0  9995
2 46778  85.0000  84.0000 0000000   0.0000 354.0000 13.81096544    13
CTC2_L_00296009-01
1 46779U 23637PK  26070.40846065  .00000000  00000+0  00000-0 0  9991
2 46779  85.0000  96.0000 0000000   0.0000  96.0000 13.81096544    10
CTC2_L_00296009-02
1 46780U 26632FD  26070.40846065  .00000000  00000+0  00000-0 0  9991
2 46780  85.0000  96.0000 0000000   0.0000 186.0000 13.81096544    12
CTC2_L_00296009-03
1 46781U 24761EK  26070.40846065  .00000000  00000+0  00000-0 0  9993
2 46781  85.0000  96.0000 0000000   0.0000 276.0000 13.81096544    13
CTC2_L_00296009-04
1 46782U 26610OO  26070.40846065  .00000000  00000+0  00000-0 0  9999
2 46782  85.0000  96.0000 0000000   0.0000   6.0000 13.81096544    15
CTC2_L_00296010-01
1 46783U 23777WV  26070.40846065  .00000000  00000+0  00000-0 0  9991
2 46783  85.0000 108.0000 0000000   0.0000 108.0000 13.81096544    13
CTC2_L_00296010-02
1 46784U 22551PS  26070.40846065  .00000000  00000+0  00000-0 0  9991
2 46784  85.0000 108.0000 0000000   0.0000 198.0000 13.81096544    13
CTC2_L_00296010-03
1 46785U 24655US  26070.40846065  .00000000  00000+0  00000-0 0  9999
2 46785  85.0000 108.0000 0000000   0.0000 288.0000 13.81096544    14
CTC2_L_00296010-04
1 46786U 26151YN  26070.40846065  .00000000  00000+0  00000-0 0  9993
2 46786  85.0000 108.0000 0000000   0.0000  18.0000 13.81096544    16
CTC2_L_00296011-01
1 46787U 25821QC  26070.40846065  .00000000  00000+0  00000-0 0  9997
2 46787  85.0000 120.0000 0000000   0.0000 120.0000 13.81096544    15
CTC2_L_00296011-02
1 46788U 26553OF  26070.40846065  .00000000  00000+0  00000-0 0  9991
2 46788  85.0000 120.0000 0000000   0.0000 210.0000 13.81096544    16
CTC2_L_00296011-03
1 46789U 22123ML  26070.40846065  .00000000  00000+0  00000-0 0  9991
2 46789  85.0000 120.0000 0000000   0.0000 300.0000 13.81096544    17
CTC2_L_00296011-04
1 46790U 22243YY  26070.40846065  .00000000  00000+0  00000-0 0  9996
2 46790  85.0000 120.0000 0000000   0.0000  30.0000 13.81096544    19
CTC2_L_00296012-01
1 46791U 23238SK  26070.40846065  .00000000  00000+0  00000-0 0  9992
2 46791  85.0000 132.0000 0000000   0.0000 132.0000 13.81096544    16
CTC2_L_00296012-02
1 46792U 24158HN  26070.40846065  .00000000  00000+0  00000-0 0  9995
2 46792  85.0000 132.0000 0000000   0.0000 222.0000 13.81096544    17
CTC2_L_00296012-03
1 46793U 26895QH  26070.40846065  .00000000  00000+0  00000-0 0  9996
2 46793  85.0000 132.0000 0000000   0.0000 312.0000 13.81096544    18
CTC2_L_00296012-04
1 46794U 23955HO  26070.40846065  .00000000  00000+0  00000-0 0  9991
2 46794  85.0000 132.0000 0000000   0.0000  42.0000 13.81096544    19
CTC2_L_00296013-01
1 46795U 26132BN  26070.40846065  .00000000  00000+0  00000-0 0  9992
2 46795  85.0000 144.0000 0000000   0.0000 144.0000 13.81096544    16
CTC2_L_00296013-02
1 46796U 24950GJ  26070.40846065  .00000000  00000+0  00000-0 0  9999
2 46796  85.0000 144.0000 0000000   0.0000 234.0000 13.81096544    17
CTC2_L_00296013-03
1 46797U 22975XH  26070.40846065  .00000000  00000+0  00000-0 0  9995
2 46797  85.0000 144.0000 0000000   0.0000 324.0000 13.81096544    18
CTC2_L_00296013-04
1 46798U 24159YF  26070.40846065  .00000000  00000+0  00000-0 0  9992
2 46798  85.0000 144.0000 0000000   0.0000  54.0000 13.81096544    19
CTC2_L_00296014-01
1 46799U 22091ML  26070.40846065  .00000000  00000+0  00000-0 0  9996
2 46799  85.0000 156.0000 0000000   0.0000 156.0000 13.81096544    16
CTC2_L_00296014-02
1 46800U 24814KH  26070.40846065  .00000000  00000+0  00000-0 0  9994
2 46800  85.0000 156.0000 0000000   0.0000 246.0000 13.81096544    19
CTC2_L_00296014-03
1 46801U 25666AI  26070.40846065  .00000000  00000+0  00000-0 0  9991
2 46801  85.0000 156.0000 0000000   0.0000 336.0000 13.81096544    10
CTC2_L_00296014-04
1 46802U 26928CR  26070.40846065  .00000000  00000+0  00000-0 0  9994
2 46802  85.0000 156.0000 0000000   0.0000  66.0000 13.81096544    11
CTC2_L_00296015-01
1 46803U 25443TM  26070.40846065  .00000000  00000+0  00000-0 0  9996
2 46803  85.0000 168.0000 0000000   0.0000 168.0000 13.81096544    18
CTC2_L_00296015-02
1 46804U 25334RD  26070.40846065  .00000000  00000+0  00000-0 0  9996
2 46804  85.0000 168.0000 0000000   0.0000 258.0000 13.81096544    19
CTC2_L_00296015-03
1 46805U 22831JJ  26070.40846065  .00000000  00000+0  00000-0 0  9996
2 46805  85.0000 168.0000 0000000   0.0000 348.0000 13.81096544    10
CTC2_L_00296015-04
1 46806U 26669FX  26070.40846065  .00000000  00000+0  00000-0 0  9990
2 46806  85.0000 168.0000 0000000   0.0000  78.0000 13.81096544    11
CTC2_L_00296016-01
1 46807U 23378UR  26070.40846065  .00000000  00000+0  00000-0 0  9995
2 46807  85.0000 180.0000 0000000   0.0000 180.0000 13.81096544    10
CTC2_L_00296016-02
1 46808U 24291SC  26070.40846065  .00000000  00000+0  00000-0 0  9991
2 46808  85.0000 180.0000 0000000   0.0000 270.0000 13.81096544    11
